{
  "type": "FeatureCollection",
  "features": [
    {
      "type": "Feature",
      "properties": {
        "norad_id": 63632,
        "name": "SHENZHOU-20 (SZ-20)",
        "group": "stations",
        "lat": 34.1297374232761,
        "lon": -162.8661610629577,
        "alt_km": 392.1576151479294,
        "timestamp": "2025-12-04T09:47:36.321894+00:00",
        "meta_object_name": "SHENZHOU-20 (SZ-20)",
        "meta_object_id": "2025-082A",
        "meta_epoch": "2025-12-03T17:53:39.447744",
        "meta_mean_motion": 15.58598848,
        "meta_eccentricity": 0.00100687,
        "meta_inclination": 41.4679,
        "meta_ra_of_asc_node": 71.2873,
        "meta_arg_of_pericenter": 322.1315,
        "meta_mean_anomaly": 37.8814,
        "meta_ephemeris_type": 0,
        "meta_classification_type": "U",
        "meta_norad_cat_id": 63632,
        "meta_element_set_no": 999,
        "meta_rev_at_epoch": 25530,
        "meta_bstar": 0.00035132982,
        "meta_mean_motion_dot": 0.00027527,
        "meta_mean_motion_ddot": 0,
        "tle_line1": "1 63632U 25082A   25337.74559546  .00027527  00000+0  35133-3 0  9992",
        "tle_line2": "2 63632  41.4679  71.2873 0010068 322.1315  37.8814 15.58598848255300"
      },
      "geometry": {
        "type": "Point",
        "coordinates": [
          -162.8661610629577,
          34.1297374232761
        ]
      }
    },
    {
      "type": "Feature",
      "properties": {
        "norad_id": 64751,
        "name": "PROGRESS-MS 31",
        "group": "stations",
        "lat": -26.95066470945791,
        "lon": 159.97180132299346,
        "alt_km": 423.5150214011992,
        "timestamp": "2025-12-04T09:47:36.321909+00:00",
        "meta_object_name": "PROGRESS-MS 31",
        "meta_object_id": "2025-146A",
        "meta_epoch": "2025-12-03T21:33:39.277728",
        "meta_mean_motion": 15.4928465,
        "meta_eccentricity": 0.00035922,
        "meta_inclination": 51.6303,
        "meta_ra_of_asc_node": 186.2514,
        "meta_arg_of_pericenter": 201.3576,
        "meta_mean_anomaly": 158.7263,
        "meta_ephemeris_type": 0,
        "meta_classification_type": "U",
        "meta_norad_cat_id": 64751,
        "meta_element_set_no": 999,
        "meta_rev_at_epoch": 675,
        "meta_bstar": 0.00025253496,
        "meta_mean_motion_dot": 0.00013627,
        "meta_mean_motion_ddot": 0,
        "tle_line1": "1 64751U 25146A   25337.89837127  .00013627  00000+0  25253-3 0  9994",
        "tle_line2": "2 64751  51.6303 186.2514 0003592 201.3576 158.7263 15.49284650  6757"
      },
      "geometry": {
        "type": "Point",
        "coordinates": [
          159.97180132299346,
          -26.95066470945791
        ]
      }
    },
    {
      "type": "Feature",
      "properties": {
        "norad_id": 64786,
        "name": "TIANZHOU-9",
        "group": "stations",
        "lat": 34.12973673392887,
        "lon": -162.86615928743305,
        "alt_km": 392.1576153399774,
        "timestamp": "2025-12-04T09:47:36.321919+00:00",
        "meta_object_name": "TIANZHOU-9",
        "meta_object_id": "2025-149A",
        "meta_epoch": "2025-12-03T17:53:39.447744",
        "meta_mean_motion": 15.58598848,
        "meta_eccentricity": 0.00100687,
        "meta_inclination": 41.4679,
        "meta_ra_of_asc_node": 71.2873,
        "meta_arg_of_pericenter": 322.1315,
        "meta_mean_anomaly": 37.8814,
        "meta_ephemeris_type": 0,
        "meta_classification_type": "U",
        "meta_norad_cat_id": 64786,
        "meta_element_set_no": 999,
        "meta_rev_at_epoch": 25530,
        "meta_bstar": 0.00035132982,
        "meta_mean_motion_dot": 0.00027527,
        "meta_mean_motion_ddot": 0,
        "tle_line1": "1 64786U 25149A   25337.74559546  .00027527  00000+0  35133-3 0  9997",
        "tle_line2": "2 64786  41.4679  71.2873 0010068 322.1315  37.8814 15.58598848255301"
      },
      "geometry": {
        "type": "Point",
        "coordinates": [
          -162.86615928743305,
          34.12973673392887
        ]
      }
    },
    {
      "type": "Feature",
      "properties": {
        "norad_id": 65077,
        "name": "CREW DRAGON 11",
        "group": "stations",
        "lat": -26.95066364501212,
        "lon": 159.9718024813015,
        "alt_km": 423.5150213797797,
        "timestamp": "2025-12-04T09:47:36.321932+00:00",
        "meta_object_name": "CREW DRAGON 11",
        "meta_object_id": "2025-166A",
        "meta_epoch": "2025-12-03T21:33:39.277728",
        "meta_mean_motion": 15.4928465,
        "meta_eccentricity": 0.00035922,
        "meta_inclination": 51.6303,
        "meta_ra_of_asc_node": 186.2514,
        "meta_arg_of_pericenter": 201.3576,
        "meta_mean_anomaly": 158.7263,
        "meta_ephemeris_type": 0,
        "meta_classification_type": "U",
        "meta_norad_cat_id": 65077,
        "meta_element_set_no": 999,
        "meta_rev_at_epoch": 214,
        "meta_bstar": 0.00025253496,
        "meta_mean_motion_dot": 0.00013627,
        "meta_mean_motion_ddot": 0,
        "tle_line1": "1 65077U 25166A   25337.89837127  .00013627  00000+0  25253-3 0  9998",
        "tle_line2": "2 65077  51.6303 186.2514 0003592 201.3576 158.7263 15.49284650  2148"
      },
      "geometry": {
        "type": "Point",
        "coordinates": [
          159.9718024813015,
          -26.95066364501212
        ]
      }
    },
    {
      "type": "Feature",
      "properties": {
        "norad_id": 65304,
        "name": "DRAGON CRS-33",
        "group": "stations",
        "lat": -26.95066313592911,
        "lon": 159.97180303527512,
        "alt_km": 423.51502136953513,
        "timestamp": "2025-12-04T09:47:36.321943+00:00",
        "meta_object_name": "DRAGON CRS-33",
        "meta_object_id": "2025-186A",
        "meta_epoch": "2025-12-03T21:33:39.277728",
        "meta_mean_motion": 15.4928465,
        "meta_eccentricity": 0.00035922,
        "meta_inclination": 51.6303,
        "meta_ra_of_asc_node": 186.2514,
        "meta_arg_of_pericenter": 201.3576,
        "meta_mean_anomaly": 158.7263,
        "meta_ephemeris_type": 0,
        "meta_classification_type": "U",
        "meta_norad_cat_id": 65304,
        "meta_element_set_no": 999,
        "meta_rev_at_epoch": 11,
        "meta_bstar": 0.00025253496,
        "meta_mean_motion_dot": 0.00013627,
        "meta_mean_motion_ddot": 0,
        "tle_line1": "1 65304U 25186A   25337.89837127  .00013627  00000+0  25253-3 0  9993",
        "tle_line2": "2 65304  51.6303 186.2514 0003592 201.3576 158.7263 15.49284650   116"
      },
      "geometry": {
        "type": "Point",
        "coordinates": [
          159.97180303527512,
          -26.95066313592911
        ]
      }
    },
    {
      "type": "Feature",
      "properties": {
        "norad_id": 65586,
        "name": "PROGRESS-MS 32",
        "group": "stations",
        "lat": -26.95066267312681,
        "lon": 159.97180353888706,
        "alt_km": 423.51502136021827,
        "timestamp": "2025-12-04T09:47:36.321953+00:00",
        "meta_object_name": "PROGRESS-MS 32",
        "meta_object_id": "2025-204A",
        "meta_epoch": "2025-12-03T21:33:39.277728",
        "meta_mean_motion": 15.4928465,
        "meta_eccentricity": 0.00035922,
        "meta_inclination": 51.6303,
        "meta_ra_of_asc_node": 186.2514,
        "meta_arg_of_pericenter": 201.3576,
        "meta_mean_anomaly": 158.7263,
        "meta_ephemeris_type": 0,
        "meta_classification_type": "U",
        "meta_norad_cat_id": 65586,
        "meta_element_set_no": 999,
        "meta_rev_at_epoch": 27,
        "meta_bstar": 0.00025253496,
        "meta_mean_motion_dot": 0.00013627,
        "meta_mean_motion_ddot": 0,
        "tle_line1": "1 65586U 25204A   25337.89837127  .00013627  00000+0  25253-3 0  9996",
        "tle_line2": "2 65586  51.6303 186.2514 0003592 201.3576 158.7263 15.49284650   275"
      },
      "geometry": {
        "type": "Point",
        "coordinates": [
          159.97180353888706,
          -26.95066267312681
        ]
      }
    },
    {
      "type": "Feature",
      "properties": {
        "norad_id": 65616,
        "name": "CYGNUS NG-23",
        "group": "stations",
        "lat": -26.950662210324204,
        "lon": 159.9718040424993,
        "alt_km": 423.51502135090414,
        "timestamp": "2025-12-04T09:47:36.321963+00:00",
        "meta_object_name": "CYGNUS NG-23",
        "meta_object_id": "2025-208A",
        "meta_epoch": "2025-12-03T21:33:39.277728",
        "meta_mean_motion": 15.4928465,
        "meta_eccentricity": 0.00035922,
        "meta_inclination": 51.6303,
        "meta_ra_of_asc_node": 186.2514,
        "meta_arg_of_pericenter": 201.3576,
        "meta_mean_anomaly": 158.7263,
        "meta_ephemeris_type": 0,
        "meta_classification_type": "U",
        "meta_norad_cat_id": 65616,
        "meta_element_set_no": 999,
        "meta_rev_at_epoch": 22,
        "meta_bstar": 0.00025253496,
        "meta_mean_motion_dot": 0.00013627,
        "meta_mean_motion_ddot": 0,
        "tle_line1": "1 65616U 25208A   25337.89837127  .00013627  00000+0  25253-3 0  9994",
        "tle_line2": "2 65616  51.6303 186.2514 0003592 201.3576 158.7263 15.49284650   224"
      },
      "geometry": {
        "type": "Point",
        "coordinates": [
          159.9718040424993,
          -26.950662210324204
        ]
      }
    }
  ]
}